{"type": "FeatureCollection", "features": [ {"type": "Feature", "properties": {"norad_id": 34911, "name": "COSMOS 2251 DEB", "group": "cosmos-2251-debris", "lat": 42.58000676105699, "lon": -125.65116162877457, "alt_km": 664.4688355639537, "timestamp": "2025-12-26T04:40:06.180307+00:00", "meta": {"OBJECT_NAME": "COSMOS 2251 DEB", "OBJECT_ID": "1993-036ADG", "EPOCH": "2025-12-24T21:16:20.685792", "MEAN_MOTION": 14.59389017, "ECCENTRICITY": 0.008416, "INCLINATION": 74.0397, "RA_OF_ASC_NODE": 221.5946, "ARG_OF_PERICENTER": 343.9846, "MEAN_ANOMALY": 29.9436, "EPHEMERIS_TYPE": 0, "CLASSIFICATION_TYPE": "U", "NORAD_CAT_ID": 34911, "ELEMENT_SET_NO": 999, "REV_AT_EPOCH": 88764, "BSTAR": 0.00011043, "MEAN_MOTION_DOT": 5.17e-06, "MEAN_MOTION_DDOT": 0}, "tle": {"line1": "1 34911U 93036ADG 25358.88635053  .00000517  00000+0  11043-3 0  9994", "line2": "2 34911  74.0397 221.5946 0084160 343.9846  29.9436 14.59389017887648"}}, "geometry": {"type": "Point", "coordinates": [-125.65116162877457, 42.58000676105699]}}, {"type": "Feature", "properties": {"norad_id": 34913, "name": "COSMOS 2251 DEB", "group": "cosmos-2251-debris", "lat": -65.10346773362515, "lon": -140.26223070521874, "alt_km": 779.1849134382373, "timestamp": "2025-12-26T04:40:06.180337+00:00", "meta": {"OBJECT_NAME": "COSMOS 2251 DEB", "OBJECT_ID": "1993-036ADJ", "EPOCH": "2025-12-25T11:24:46.560096", "MEAN_MOTION": 14.34641195, "ECCENTRICITY": 0.0020873, "INCLINATION": 74.0281, "RA_OF_ASC_NODE": 259.159, "ARG_OF_PERICENTER": 5.6867, "MEAN_ANOMALY": 172.1148, "EPHEMERIS_TYPE": 0, "CLASSIFICATION_TYPE": "U", "NORAD_CAT_ID": 34913, "ELEMENT_SET_NO": 999, "REV_AT_EPOCH": 65370, "BSTAR": 4.8442e-05, "MEAN_MOTION_DOT": 1.11e-06, "MEAN_MOTION_DDOT": 0}, "tle": {"line1": "1 34913U 93036ADJ 25359.47553889  .00000111  00000+0  48442-4 0  9992", "line2": "2 34913  74.0281 259.1590 0020873   5.6867 172.1148 14.34641195653700"}}, "geometry": {"type": "Point", "coordinates": [-140.26223070521874, -65.10346773362515]}}, {"type": "Feature", "properties": {"norad_id": 34918, "name": "COSMOS 2251 DEB", "group": "cosmos-2251-debris", "lat": -67.05955424053322, "lon": -114.48105028352319, "alt_km": 676.2303864530377, "timestamp": "2025-12-26T04:40:06.180365+00:00", "meta": {"OBJECT_NAME": "COSMOS 2251 DEB", "OBJECT_ID": "1993-036ADP", "EPOCH": "2025-12-25T13:22:56.208000", "MEAN_MOTION": 14.61407505, "ECCENTRICITY": 0.0032745, "INCLINATION": 74.0712, "RA_OF_ASC_NODE": 289.1692, "ARG_OF_PERICENTER": 254.3817, "MEAN_ANOMALY": 282.6516, "EPHEMERIS_TYPE": 0, "CLASSIFICATION_TYPE": "U", "NORAD_CAT_ID": 34918, "ELEMENT_SET_NO": 999, "REV_AT_EPOCH": 65523, "BSTAR": 0.0018027, "MEAN_MOTION_DOT": 8.971e-05, "MEAN_MOTION_DDOT": 0}, "tle": {"line1": "1 34918U 93036ADP 25359.55759500  .00008971  00000+0  18027-2 0  9990", "line2": "2 34918  74.0712 289.1692 0032745 254.3817 282.6516 14.61407505655230"}}, "geometry": {"type": "Point", "coordinates": [-114.48105028352319, -67.05955424053322]}}, {"type": "Feature", "properties": {"norad_id": 34924, "name": "COSMOS 2251 DEB", "group": "cosmos-2251-debris", "lat": -42.20294060092888, "lon": -101.18272620798574, "alt_km": 691.7686347671597, "timestamp": "2025-12-26T04:40:06.180378+00:00", "meta": {"OBJECT_NAME": "COSMOS 2251 DEB", "OBJECT_ID": "1993-036ADV", "EPOCH": "2025-12-25T15:10:33.634272", "MEAN_MOTION": 14.60138002, "ECCENTRICITY": 0.0053304, "INCLINATION": 74.0404, "RA_OF_ASC_NODE": 64.8485, "ARG_OF_PERICENTER": 146.1764, "MEAN_ANOMALY": 3.5611, "EPHEMERIS_TYPE": 0, "CLASSIFICATION_TYPE": "U", "NORAD_CAT_ID": 34924, "ELEMENT_SET_NO": 999, "REV_AT_EPOCH": 87911, "BSTAR": 0.00084049, "MEAN_MOTION_DOT": 4.099e-05, "MEAN_MOTION_DDOT": 0}, "tle": {"line1": "1 34924U 93036ADV 25359.63233373  .00004099  00000+0  84049-3 0  9996", "line2": "2 34924  74.0404  64.8485 0053304 146.1764   3.5611 14.60138002879119"}}, "geometry": {"type": "Point", "coordinates": [-101.18272620798574, -42.20294060092888]}}, {"type": "Feature", "properties": {"norad_id": 34944, "name": "COSMOS 2251 DEB", "group": "cosmos-2251-debris", "lat": -73.54456557069783, "lon": 108.75751185444793, "alt_km": 981.8558799374368, "timestamp": "2025-12-26T04:40:06.180390+00:00", "meta": {"OBJECT_NAME": "COSMOS 2251 DEB", "OBJECT_ID": "1993-036ADX", "EPOCH": "2025-12-25T22:19:01.732224", "MEAN_MOTION": 14.14209223, "ECCENTRICITY": 0.02198568, "INCLINATION": 73.7465, "RA_OF_ASC_NODE": 208.243, "ARG_OF_PERICENTER": 53.5643, "MEAN_ANOMALY": 308.5545, "EPHEMERIS_TYPE": 0, "CLASSIFICATION_TYPE": "U", "NORAD_CAT_ID": 34944, "ELEMENT_SET_NO": 999, "REV_AT_EPOCH": 64269, "BSTAR": 0.00034915004, "MEAN_MOTION_DOT": 8.13e-06, "MEAN_MOTION_DDOT": 0}, "tle": {"line1": "1 34944U 93036ADX 25359.92988116  .00000813  00000+0  34915-3 0  9999", "line2": "2 34944  73.7465 208.2430 0219856  53.5643 308.5545 14.14209223642699"}}, "geometry": {"type": "Point", "coordinates": [108.75751185444793, -73.54456557069783]}}, {"type": "Feature", "properties": {"norad_id": 34946, "name": "COSMOS 2251 DEB", "group": "cosmos-2251-debris", "lat": 16.51335042493952, "lon": 131.46516039754795, "alt_km": 676.841746367968, "timestamp": "2025-12-26T04:40:06.180400+00:00", "meta": {"OBJECT_NAME": "COSMOS 2251 DEB", "OBJECT_ID": "1993-036ADZ", "EPOCH": "2025-12-25T14:47:39.171840", "MEAN_MOTION": 14.62063555, "ECCENTRICITY": 0.0048508, "INCLINATION": 74.0243, "RA_OF_ASC_NODE": 317.4443, "ARG_OF_PERICENTER": 90.5194, "MEAN_ANOMALY": 270.1532, "EPHEMERIS_TYPE": 0, "CLASSIFICATION_TYPE": "U", "NORAD_CAT_ID": 34946, "ELEMENT_SET_NO": 999, "REV_AT_EPOCH": 88397, "BSTAR": 0.00064563, "MEAN_MOTION_DOT": 3.267e-05, "MEAN_MOTION_DDOT": 0}, "tle": {"line1": "1 34946U 93036ADZ 25359.61642560  .00003267  00000+0  64563-3 0  9995", "line2": "2 34946  74.0243 317.4443 0048508  90.5194 270.1532 14.62063555883979"}}, "geometry": {"type": "Point", "coordinates": [131.46516039754795, 16.51335042493952]}}, {"type": "Feature", "properties": {"norad_id": 34949, "name": "COSMOS 2251 DEB", "group": "cosmos-2251-debris", "lat": -70.06936391952085, "lon": 31.15267921574979, "alt_km": 623.4155820835349, "timestamp": "2025-12-26T04:40:06.180411+00:00", "meta": {"OBJECT_NAME": "COSMOS 2251 DEB", "OBJECT_ID": "1993-036AEC", "EPOCH": "2025-12-25T22:30:24.026976", "MEAN_MOTION": 14.74089192, "ECCENTRICITY": 0.00799631, "INCLINATION": 74.0186, "RA_OF_ASC_NODE": 83.8736, "ARG_OF_PERICENTER": 226.4237, "MEAN_ANOMALY": 133.028, "EPHEMERIS_TYPE": 0, "CLASSIFICATION_TYPE": "U", "NORAD_CAT_ID": 34949, "ELEMENT_SET_NO": 999, "REV_AT_EPOCH": 88556, "BSTAR": 0.00052426512, "MEAN_MOTION_DOT": 3.601e-05, "MEAN_MOTION_DDOT": 0}, "tle": {"line1": "1 34949U 93036AEC 25359.93777809  .00003601  00000+0  52427-3 0  9996", "line2": "2 34949  74.0186  83.8736 0079963 226.4237 133.0280 14.74089192885566"}}, "geometry": {"type": "Point", "coordinates": [31.15267921574979, -70.06936391952085]}}, {"type": "Feature", "properties": {"norad_id": 34953, "name": "COSMOS 2251 DEB", "group": "cosmos-2251-debris", "lat": 12.729064371092985, "lon": 5.224825393768414, "alt_km": 626.8244506116444, "timestamp": "2025-12-26T04:40:06.180421+00:00", "meta": {"OBJECT_NAME": "COSMOS 2251 DEB", "OBJECT_ID": "1993-036AEG", "EPOCH": "2025-12-25T11:19:13.069920", "MEAN_MOTION": 14.69072329, "ECCENTRICITY": 0.0058855, "INCLINATION": 74.0932, "RA_OF_ASC_NODE": 2.9253, "ARG_OF_PERICENTER": 351.3898, "MEAN_ANOMALY": 160.4406, "EPHEMERIS_TYPE": 0, "CLASSIFICATION_TYPE": "U", "NORAD_CAT_ID": 34953, "ELEMENT_SET_NO": 999, "REV_AT_EPOCH": 88315, "BSTAR": 0.00095932, "MEAN_MOTION_DOT": 5.756e-05, "MEAN_MOTION_DDOT": 0}, "tle": {"line1": "1 34953U 93036AEG 25359.47167905  .00005756  00000+0  95932-3 0  9991", "line2": "2 34953  74.0932   2.9253 0058855 351.3898 160.4406 14.69072329883159"}}, "geometry": {"type": "Point", "coordinates": [5.224825393768414, 12.729064371092985]}}, {"type": "Feature", "properties": {"norad_id": 34955, "name": "COSMOS 2251 DEB", "group": "cosmos-2251-debris", "lat": -53.68478107313375, "lon": 62.05487626494163, "alt_km": 535.4023865130748, "timestamp": "2025-12-26T04:40:06.180431+00:00", "meta": {"OBJECT_NAME": "COSMOS 2251 DEB", "OBJECT_ID": "1993-036AEJ", "EPOCH": "2025-12-24T22:48:41.659488", "MEAN_MOTION": 15.00737642, "ECCENTRICITY": 0.00777361, "INCLINATION": 74.035, "RA_OF_ASC_NODE": 221.6616, "ARG_OF_PERICENTER": 288.4914, "MEAN_ANOMALY": 70.7836, "EPHEMERIS_TYPE": 0, "CLASSIFICATION_TYPE": "U", "NORAD_CAT_ID": 34955, "ELEMENT_SET_NO": 999, "REV_AT_EPOCH": 90217, "BSTAR": 0.00061621674, "MEAN_MOTION_DOT": 8.298e-05, "MEAN_MOTION_DDOT": 0}, "tle": {"line1": "1 34955U 93036AEJ 25358.95048217  .00008298  00000+0  61622-3 0  9992", "line2": "2 34955  74.0350 221.6616 0077736 288.4914  70.7836 15.00737642902172"}}, "geometry": {"type": "Point", "coordinates": [62.05487626494163, -53.68478107313375]}}, {"type": "Feature", "properties": {"norad_id": 34962, "name": "COSMOS 2251 DEB", "group": "cosmos-2251-debris", "lat": -65.4102802456159, "lon": 129.48845450093336, "alt_km": 730.4956647457129, "timestamp": "2025-12-26T04:40:06.180441+00:00", "meta": {"OBJECT_NAME": "COSMOS 2251 DEB", "OBJECT_ID": "1993-036AER", "EPOCH": "2025-12-24T21:27:34.403616", "MEAN_MOTION": 14.46552409, "ECCENTRICITY": 0.0018915, "INCLINATION": 74.0287, "RA_OF_ASC_NODE": 170.6598, "ARG_OF_PERICENTER": 282.7442, "MEAN_ANOMALY": 77.1602, "EPHEMERIS_TYPE": 0, "CLASSIFICATION_TYPE": "U", "NORAD_CAT_ID": 34962, "ELEMENT_SET_NO": 999, "REV_AT_EPOCH": 87754, "BSTAR": 0.00044037, "MEAN_MOTION_DOT": 1.563e-05, "MEAN_MOTION_DDOT": 0}, "tle": {"line1": "1 34962U 93036AER 25358.89414819  .00001563  00000+0  44037-3 0  9997", "line2": "2 34962  74.0287 170.6598 0018915 282.7442  77.1602 14.46552409877547"}}, "geometry": {"type": "Point", "coordinates": [129.48845450093336, -65.4102802456159]}}]}